{
    "links": {
        "self": "http://www.neowsapp.com/rest/v1/neo/3560056?api_key=iIulBulltgU6a56xZRHN4H3l9WmuAYTsLGpBGhQ2"
    },
    "id": "3560056",
    "neo_reference_id": "3560056",
    "name": "(2011 FR2)",
    "designation": "2011 FR2",
    "nasa_jpl_url": "http://ssd.jpl.nasa.gov/sbdb.cgi?sstr=3560056",
    "absolute_magnitude_h": 25.0,
    "estimated_diameter": {
        "kilometers": {
            "estimated_diameter_min": 0.02658,
            "estimated_diameter_max": 0.0594346868
        },
        "meters": {
            "estimated_diameter_min": 26.58,
            "estimated_diameter_max": 59.4346868419
        },
        "miles": {
            "estimated_diameter_min": 0.0165160412,
            "estimated_diameter_max": 0.0369309908
        },
        "feet": {
            "estimated_diameter_min": 87.2047272,
            "estimated_diameter_max": 194.9956979785
        }
    },
    "is_potentially_hazardous_asteroid": false,
    "close_approach_data": [
        {
            "close_approach_date": "2011-04-01",
            "close_approach_date_full": "2011-Apr-01 06:37",
            "epoch_date_close_approach": 1301639820000,
            "relative_velocity": {
                "kilometers_per_second": "4.8753869439",
                "kilometers_per_hour": "17551.3929980011",
                "miles_per_hour": "10905.7530547857"
            },
            "miss_distance": {
                "astronomical": "0.0955692969",
                "lunar": "37.1764564941",
                "kilometers": "14296963.253637603",
                "miles": "8883721.0221928014"
            },
            "orbiting_body": "Earth"
        },
        {
            "close_approach_date": "2016-04-01",
            "close_approach_date_full": "2016-Apr-01 21:53",
            "epoch_date_close_approach": 1459547580000,
            "relative_velocity": {
                "kilometers_per_second": "9.2347142088",
                "kilometers_per_hour": "33244.9711518542",
                "miles_per_hour": "20657.1322137729"
            },
            "miss_distance": {
                "astronomical": "0.3148924762",
                "lunar": "122.4931732418",
                "kilometers": "47107243.718545694",
                "miles": "29271083.9285068172"
            },
            "orbiting_body": "Earth"
        }
    ],
    "orbital_data": {
        "orbit_id": "6",
        "orbit_determination_date": "2019-07-16 06:14:41",
        "first_observation_date": "2011-03-25",
        "last_observation_date": "2011-03-26",
        "data_arc_in_days": 1,
        "observations_used": 14,
        "orbit_uncertainty": "8",
        "minimum_orbit_intersection": ".0931232",
        "jupiter_tisserand_invariant": "4.685",
        "epoch_osculation": "2455646.5",
        "eccentricity": ".2310082387603686",
        "semi_major_axis": "1.413656299049172",
        "inclination": "8.234948476429341",
        "ascending_node_longitude": "16.63034245798086",
        "orbital_period": "613.9233842218769",
        "perihelion_distance": "1.087090047193322",
        "perihelion_argument": "162.9541717741587",
        "aphelion_distance": "1.740222550905022",
        "perihelion_time": "2455642.236812159606",
        "mean_anomaly": "2.499900902923042",
        "mean_motion": ".5863923891028935",
        "equinox": "J2000",
        "orbit_class": {
            "orbit_class_type": "AMO",
            "orbit_class_description": "Near-Earth asteroid orbits similar to that of 1221 Amor",
            "orbit_class_range": "1.017 AU < q (perihelion) < 1.3 AU"
        }
    },
    "is_sentry_object": false
}